{
  "norad_id": 68342,
  "name": "STARLINK-37192",
  "history": [
    {
      "epoch": "2026-03-31T16:00:01.999584Z",
      "apogee_km": 322.06437741938316,
      "perigee_km": 320.91606131398385,
      "latitude_deg": -43.83872056267925,
      "longitude_deg": 137.83825000911045,
      "height_km": 336.6212911713962,
      "semi_major_axis_km": 6699.627219366683,
      "eccentricity": 8.57e-05,
      "inclination_deg": 53.1592,
      "raan_deg": 252.5623,
      "arg_perigee_deg": 73.8084,
      "mean_anomaly_deg": 226.6208,
      "mean_motion_rev_day": 15.83167276
    }
  ]
}